ONEWEB-0439             
1 51635U 22012P   24189.43936450 -.00000020  00000+0 -94494-4 0  9992
2 51635  87.8942 177.3990 0002048  85.1750 274.9611 13.10374728116370
ONEWEB-0442             
1 51636U 22012Q   24189.80935850  .00000035  00000+0  56031-4 0  9996
2 51636  87.9182 147.1245 0001874 105.0506 255.0833 13.17651679121544
ONEWEB-0443             
1 51637U 22012R   24189.90387632  .00000010  00000+0 -84004-5 0  9993
2 51637  87.9184 147.1134 0002588  79.1325 281.0097 13.17650405121601
ONEWEB-0444             
1 51638U 22012S   24190.19298738  .00000573  00000+0  16059-2 0  9990
2 51638  87.8939 177.2706 0002217  82.7761 277.3619 13.10372460117777
ONEWEB-0445             
1 51639U 22012T   24190.21455106 -.00000427  00000+0 -12589-2 0  9992
2 51639  87.8934 177.2376 0001834  93.3149 266.8188 13.10370679117772
ONEWEB-0446             
1 51640U 22012U   24190.19133005  .00000666  00000+0  18708-2 0  9994
2 51640  87.8944 177.2682 0001728  90.5304 269.6021 13.10372287117773
ONEWEB-0448             
1 51641U 22012V   24189.89087757  .00000363  00000+0  10033-2 0  9999
2 51641  87.8942 177.3284 0002148  84.5772 275.5600 13.10370286117697
ONEWEB-0449             
1 51642U 22012W   24190.20128503  .00000265  00000+0  72379-3 0  9995
2 51642  87.8936 177.2611 0002170  94.4518 265.6857 13.10372217117754
ONEWEB-0451             
1 51643U 22012X   24189.96525943  .00000091  00000+0  20032-3 0  9992
2 51643  87.9177 147.0549 0002279  83.0376 277.1015 13.17649607121569
ONEWEB-0452             
1 51644U 22012Y   24189.81178150  .00000035  00000+0  57149-4 0  9999
2 51644  87.9182 147.1264 0002395  88.2834 271.8572 13.17649910121551
ONEWEB-0456             
1 51646U 22012AA  24190.21123623 -.00000239  00000+0 -72055-3 0  9992
2 51646  87.8933 177.2304 0001907  77.9967 282.1374 13.10370487117783
ONEWEB-0457             
1 51647U 22012AB  24190.18800617  .00000698  00000+0  19620-2 0  9999
2 51647  87.8945 177.2589 0001969  95.1313 265.0039 13.10371439117794
ONEWEB-0458             
1 51648U 22012AC  24189.44599796 -.00000336  00000+0 -99830-3 0  9993
2 51648  87.8942 177.4217 0002224  87.6009 272.5373 13.10370916116359
ONEWEB-0461             
1 51649U 22012AD  24189.37715783  .00000055  00000+0  10830-3 0  9991
2 51649  87.9180 147.1793 0002188  84.8209 275.3172 13.17654579120415
ONEWEB-0463             
1 51650U 22012AE  24189.81500569  .00000010  00000+0 -75931-5 0  9993
2 51650  87.9183 147.1403 0002116  84.9666 275.1707 13.17649428121552
ONEWEB-0464             
1 51651U 22012AF  24190.20626264  .00000037  00000+0  69257-4 0  9991
2 51651  87.8942 177.2600 0002106  76.1530 283.9831 13.10369940117775
ONEWEB-0468             
1 51652U 22012AG  24190.21289384 -.00000347  00000+0 -10306-2 0  9996
2 51652  87.8943 177.2515 0002073  84.9312 275.2052 13.10370416117746
ONEWEB-0473             
1 51653U 22012AH  24190.19796653  .00000474  00000+0  13216-2 0  9998
2 51653  87.8942 177.2577 0002162  85.4744 274.6630 13.10370178117759
ONEWEB-0474             
1 51654U 22012AJ  24190.18967171  .00000710  00000+0  19988-2 0  9998
2 51654  87.8936 177.2542 0002257  81.7734 278.3650 13.10372812117736
ONEWEB-0475             
1 51655U 22012AK  24189.90226970  .00000049  00000+0  92630-4 0  9994
2 51655  87.9181 147.1022 0002486  77.8837 282.2573 13.17650374121577
ONEWEB-0490             
1 54113U 22138A   24189.79265447  .00000076  00000+0  15733-3 0  9992
2 54113  87.9141  86.1288 0001961  73.7552 286.3796 13.19728195 84138
ONEWEB-0492             
1 54114U 22138B   24189.28721327  .00000117  00000+0  26000-3 0  9996
2 54114  87.9147  86.2336 0002037  68.3187 291.8163 13.19728103 83204
ONEWEB-0495             
1 54115U 22138C   24189.79582578  .00000062  00000+0  12228-3 0  9992
2 54115  87.9146  86.1439 0002622  64.6530 295.4874 13.19724470 84122
ONEWEB-0497             
1 54116U 22138D   24189.73264490  .00000099  00000+0  21439-3 0  9991
2 54116  87.9141  86.1435 0001981  73.5333 286.6017 13.19724714 84101
ONEWEB-0499             
1 54117U 22138E   24189.79108533  .00000044  00000+0  76622-4 0  9998
2 54117  87.9147  86.1342 0002410  83.2540 276.8867 13.19728045 84128
ONEWEB-0500             
1 54118U 22138F   24189.79424005  .00000053  00000+0  99741-4 0  9991
2 54118  87.9144  86.1289 0001880  74.6017 285.5324 13.19724442 84132
ONEWEB-0501             
1 54119U 22138G   24189.21771897  .00000126  00000+0  28209-3 0  9994
2 54119  87.9143  86.2419 0002402  69.2844 290.8546 13.19723161 84038
ONEWEB-0502             
1 54120U 22138H   24189.27932302  .00000135  00000+0  30530-3 0  9992
2 54120  87.9141  86.2187 0002269  74.9457 285.1927 13.19725015 83190
ONEWEB-0503             
1 54121U 22138J   24189.79898429  .00000108  00000+0  23789-3 0  9999
2 54121  87.9140  86.1216 0002164  88.5464 271.5916 13.19725048 84122
ONEWEB-0504             
1 54122U 22138K   24189.71052860  .00000021  00000+0  20994-4 0  9993
2 54122  87.9142  86.1458 0002293  77.8426 282.2963 13.19723737 84129
ONEWEB-0505             
1 54123U 22138L   24189.78318760  .00000031  00000+0  43850-4 0  9992
2 54123  87.9141  86.1259 0002615  69.6095 290.5318 13.19724089 84113
