OBJECT_NAME,OBJECT_ID,EPOCH,MEAN_MOTION,ECCENTRICITY,INCLINATION,RA_OF_ASC_NODE,ARG_OF_PERICENTER,MEAN_ANOMALY,EPHEMERIS_TYPE,CLASSIFICATION_TYPE,NORAD_CAT_ID,ELEMENT_SET_NO,REV_AT_EPOCH,BSTAR,MEAN_MOTION_DOT,MEAN_MOTION_DDOT
ONEWEB-0439,2022-012P,2024-07-07T10:32:41.092800,13.10374728,.0002048,87.8942,177.3990,85.1750,274.9611,0,U,51635,999,11637,-.94494E-4,-.2E-6,0
ONEWEB-0442,2022-012Q,2024-07-07T19:25:28.574400,13.17651679,.0001874,87.9182,147.1245,105.0506,255.0833,0,U,51636,999,12154,.56031E-4,.35E-6,0
ONEWEB-0443,2022-012R,2024-07-07T21:41:34.914048,13.17650405,.0002588,87.9184,147.1134,79.1325,281.0097,0,U,51637,999,12160,-.84004E-5,.1E-6,0
ONEWEB-0444,2022-012S,2024-07-08T04:37:54.109632,13.10372460,.0002217,87.8939,177.2706,82.7761,277.3619,0,U,51638,999,11777,.16059E-2,.573E-5,0
ONEWEB-0445,2022-012T,2024-07-08T05:08:57.211584,13.10370679,.0001834,87.8934,177.2376,93.3149,266.8188,0,U,51639,999,11777,-.12589E-2,-.427E-5,0
ONEWEB-0446,2022-012U,2024-07-08T04:35:30.916320,13.10372287,.0001728,87.8944,177.2682,90.5304,269.6021,0,U,51640,999,11777,.18708E-2,.666E-5,0
ONEWEB-0448,2022-012V,2024-07-07T21:22:51.822048,13.10370286,.0002148,87.8942,177.3284,84.5772,275.5600,0,U,51641,999,11769,.10033E-2,.363E-5,0
ONEWEB-0449,2022-012W,2024-07-08T04:49:51.026592,13.10372217,.000217,87.8936,177.2611,94.4518,265.6857,0,U,51642,999,11775,.72379E-3,.265E-5,0
ONEWEB-0451,2022-012X,2024-07-07T23:09:58.414752,13.17649607,.0002279,87.9177,147.0549,83.0376,277.1015,0,U,51643,999,12156,.20032E-3,.91E-6,0
ONEWEB-0452,2022-012Y,2024-07-07T19:28:57.921600,13.17649910,.0002395,87.9182,147.1264,88.2834,271.8572,0,U,51644,999,12155,.57149E-4,.35E-6,0
ONEWEB-0456,2022-012AA,2024-07-08T05:04:10.810272,13.10370487,.0001907,87.8933,177.2304,77.9967,282.1374,0,U,51646,999,11778,-.72055E-3,-.239E-5,0
ONEWEB-0457,2022-012AB,2024-07-08T04:30:43.733088,13.10371439,.0001969,87.8945,177.2589,95.1313,265.0039,0,U,51647,999,11779,.1962E-2,.698E-5,0
ONEWEB-0458,2022-012AC,2024-07-07T10:42:14.223744,13.10370916,.0002224,87.8942,177.4217,87.6009,272.5373,0,U,51648,999,11635,-.9983E-3,-.336E-5,0
ONEWEB-0461,2022-012AD,2024-07-07T09:03:06.436512,13.17654579,.0002188,87.9180,147.1793,84.8209,275.3172,0,U,51649,999,12041,.1083E-3,.55E-6,0
ONEWEB-0463,2022-012AE,2024-07-07T19:33:36.491616,13.17649428,.0002116,87.9183,147.1403,84.9666,275.1707,0,U,51650,999,12155,-.75931E-5,.1E-6,0
ONEWEB-0464,2022-012AF,2024-07-08T04:57:01.092096,13.10369940,.0002106,87.8942,177.2600,76.1530,283.9831,0,U,51651,999,11777,.69257E-4,.37E-6,0
ONEWEB-0468,2022-012AG,2024-07-08T05:06:34.027776,13.10370416,.0002073,87.8943,177.2515,84.9312,275.2052,0,U,51652,999,11774,-.10306E-2,-.347E-5,0
ONEWEB-0473,2022-012AH,2024-07-08T04:45:04.308192,13.10370178,.0002162,87.8942,177.2577,85.4744,274.6630,0,U,51653,999,11775,.13216E-2,.474E-5,0
ONEWEB-0474,2022-012AJ,2024-07-08T04:33:07.635744,13.10372812,.0002257,87.8936,177.2542,81.7734,278.3650,0,U,51654,999,11773,.19988E-2,.71E-5,0
ONEWEB-0475,2022-012AK,2024-07-07T21:39:16.102080,13.17650374,.0002486,87.9181,147.1022,77.8837,282.2573,0,U,51655,999,12157,.9263E-4,.49E-6,0
ONEWEB-0490,2022-138A,2024-07-07T19:01:25.346208,13.19728195,.0001961,87.9141,86.1288,73.7552,286.3796,0,U,54113,999,8413,.15733E-3,.76E-6,0
ONEWEB-0492,2022-138B,2024-07-07T06:53:35.226528,13.19728103,.0002037,87.9147,86.2336,68.3187,291.8163,0,U,54114,999,8320,.26E-3,.117E-5,0
ONEWEB-0495,2022-138C,2024-07-07T19:05:59.347392,13.19724470,.0002622,87.9146,86.1439,64.6530,295.4874,0,U,54115,999,8412,.12228E-3,.62E-6,0
ONEWEB-0497,2022-138D,2024-07-07T17:35:00.519360,13.19724714,.0001981,87.9141,86.1435,73.5333,286.6017,0,U,54116,999,8410,.21439E-3,.99E-6,0
ONEWEB-0499,2022-138E,2024-07-07T18:59:09.772512,13.19728045,.000241,87.9147,86.1342,83.2540,276.8867,0,U,54117,999,8412,.76622E-4,.44E-6,0
ONEWEB-0500,2022-138F,2024-07-07T19:03:42.340320,13.19724442,.000188,87.9144,86.1289,74.6017,285.5324,0,U,54118,999,8413,.99741E-4,.53E-6,0
ONEWEB-0501,2022-138G,2024-07-07T05:13:30.919008,13.19723161,.0002402,87.9143,86.2419,69.2844,290.8546,0,U,54119,999,8403,.28209E-3,.126E-5,0
ONEWEB-0502,2022-138H,2024-07-07T06:42:13.508928,13.19725015,.0002269,87.9141,86.2187,74.9457,285.1927,0,U,54120,999,8319,.3053E-3,.135E-5,0
ONEWEB-0503,2022-138J,2024-07-07T19:10:32.242656,13.19725048,.0002164,87.9140,86.1216,88.5464,271.5916,0,U,54121,999,8412,.23789E-3,.108E-5,0
ONEWEB-0504,2022-138K,2024-07-07T17:03:09.671040,13.19723737,.0002293,87.9142,86.1458,77.8426,282.2963,0,U,54122,999,8412,.20994E-4,.21E-6,0
ONEWEB-0505,2022-138L,2024-07-07T18:47:47.408640,13.19724089,.0002615,87.9141,86.1259,69.6095,290.5318,0,U,54123,999,8411,.4385E-4,.31E-6,0
